<?xml version="1.0" encoding="UTF-8"?>
<kml xmlns="http://www.opengis.net/kml/2.2" xmlns:gx="http://www.google.com/kml/ext/2.2">
    <Document id="1">
        <Style id="4">
            <LineStyle id="5">
                <color>641400F0</color>
                <colorMode>normal</colorMode>
            </LineStyle>
            <PolyStyle id="6">
                <color>641400F0</color>
                <colorMode>normal</colorMode>
                <fill>0</fill>
                <outline>1</outline>
            </PolyStyle>
        </Style>
        <open>1</open>
        <Placemark id="3">
            <name>Rocket Trajectory - Powered by RocketPy</name>
            <styleUrl>#4</styleUrl>
            <LineString id="2">
                <extrude>1</extrude>
                <altitudeMode>absolute</altitudeMode>
                <coordinates>-48.96156,-21.90795,471.4779357910156 -48.96156,-21.90795,471.4779357910156 -48.96156,-21.907949999999328,471.47793664172696 -48.96156,-21.907949999998937,471.47793714173696 -48.96156,-21.907949999998177,471.47793810734686 -48.96156,-21.907949999995612,471.4779413705653 -48.96156,-21.907949999990322,471.4779480993887 -48.96156,-21.907949999981042,471.47795989705406 -48.96156,-21.90794999939799,471.4787014284774 -48.96156,-21.907949997023966,471.4817207023473 -48.96156,-21.90794999160226,471.488616019667 -48.96156,-21.907949990040215,471.4906026251051 -48.96156,-21.907949988298,471.4928183666991 -48.96156,-21.907949986372756,471.4952668893617 -48.96156,-21.907949981971942,471.50086383643094 -48.96156,-21.907949976836083,471.507395614795 -48.96156,-21.907949970963465,471.51486439724437 -48.96156,-21.907949871349036,471.6415538240758 -48.96156,-21.90794969617768,471.8643363964068 -48.96156,-21.907949443763187,472.1853566474088 -48.96156,-21.907949112427517,472.6067486737322 -48.96156,-21.907947067910357,475.20696146333285 -48.96156,-21.90794647303879,475.96351791409757 -48.96156000001274,-21.907946413576454,476.0390836150407 -48.96156000003828,-21.907946353545693,476.1153138447603 -48.96156000011506,-21.90794623234589,476.26910516006336 -48.961560000243374,-21.907946108866668,476.42556178609567 -48.96156000042337,-21.907945983102394,476.5846909246294 -48.961560003590954,-21.907944888906787,477.96131147176686 -48.961560008905856,-21.90794364431164,479.51468560761367 -48.961560013579216,-21.907942247458855,481.24841493334867 -48.96156001277922,-21.907940697214745,483.16603457836237 -48.96155999937256,-21.907938993246457,485.2709998668774 -48.96155996373103,-21.90793713606945,487.5666763055604 -48.961559893609234,-21.907935127069592,490.0563231439308 -48.961559802521386,-21.907933407048326,492.19600796766184 -48.96155967087149,-21.90793159224318,494.46412718141994 -48.96155948887999,-21.907929684429924,496.86219348528255 -48.96155924599838,-21.907927685588078,499.3916601018191 -48.96155877226554,-21.90792468112925,503.229713453486 -48.96155811915576,-21.90792150176568,507.34173767338655 -48.961557254934355,-21.907918152772552,511.7312763250915 -48.96155647598821,-21.90791560808585,515.1061288137847 -48.96155556106376,-21.90791297601579,518.6312491836536 -48.9615547547316,-21.907910877473437,521.4653273676798 -48.961553860935396,-21.90790872600446,524.3907251006582 -48.96155287884909,-21.907906520814773,527.4079290413509 -48.961551808801836,-21.90790426076847,530.5174089745345 -48.96155065227512,-21.907901944409847,533.7196154005388 -48.96154962704334,-21.9078999751164,536.4519563534182 -48.961548545854825,-21.90789796462492,539.2488788844275 -48.96154741112198,-21.907895911759365,542.1106047835731 -48.961546225565215,-21.907893815312885,545.0373423510168 -48.96154462224727,-21.907891038422537,548.9178010461836 -48.96154294530482,-21.907888184270785,552.9076207167116 -48.96154120083058,-21.90788525076368,557.0071381634731 -48.96153939406847,-21.907882236272158,561.2166434591676 -48.9615375288955,-21.907879139771666,565.5363786784982 -48.96153560743185,-21.907875960918055,569.966535500537 -48.96153362975443,-21.907872700070143,574.5072573428623 -48.961531593814236,-21.907869358245197,579.1586405301564 -48.96153042338968,-21.907867446472906,581.8194934697635 -48.96152923237923,-21.907865509981015,584.5152674906454 -48.96152801969575,-21.907863549133054,587.2459580117614 -48.96152678415479,-21.90786156430365,590.0115548266069 -48.96152552675021,-21.907859559413442,592.8070937081096 -48.96152424408943,-21.90785753135227,595.6373806163916 -48.96152293496717,-21.9078554804447,598.5023902713489 -48.96152159826346,-21.907853406972322,601.4020924352246 -48.96152033444215,-21.90785146613796,604.1193503640533 -48.96151904544095,-21.907849506264107,606.8663233571547 -48.96151773075446,-21.9078475274304,609.6429786861609 -48.96151639004649,-21.907845529663202,612.449281088172 -48.96151443629018,-21.907842652998188,616.4953027984492 -48.961512429708634,-21.907839737667615,620.6012144017122 -48.96151037125934,-21.907836783237624,624.766890281934 -48.96150826258051,-21.907833789113436,628.9921987782074 -48.96150610584242,-21.907830754589316,633.276994206006 -48.96150473132082,-21.90782883259494,635.9915808856467 -48.961503339576126,-21.90782689426937,638.7294117299818 -48.961501931251185,-21.90782493944229,641.4904432160395 -48.96150050695992,-21.90782296796288,644.274629204592 -48.96149903101116,-21.907820929691248,647.1525274856289 -48.96149753939622,-21.90781887368578,650.0546487207768 -48.961496032532985,-21.907816799880298,652.9809349031004 -48.96149451071841,-21.90781470824922,655.931325666727 -48.96149263324369,-21.907812131203958,659.5649681920086 -48.961490733754694,-21.90780952774866,663.2343038097586 -48.96148881197549,-21.907806898088815,666.9392048922274 -48.96148686735546,-21.907804242506607,670.6795369212468 -48.96148489911389,-21.907801561344655,674.4551592573246 -48.9614829063041,-21.907798854986194,678.2659248049576 -48.96148088788945,-21.9077961238314,682.1116811338173 -48.961479488041746,-21.9077942363073,684.7697660189625 -48.961478075334426,-21.907792337421924,687.4441872154238 -48.96147664948101,-21.907790427286333,690.1348909196598 -48.96147521023739,-21.907788505997182,692.8418229624697 -48.96147363282665,-21.90778640825893,695.798006135545 -48.96147203925526,-21.90778429755886,698.773167634652 -48.961470429451055,-21.907782173951556,701.7672347096689 -48.96146880343839,-21.907780037465553,704.7801332979956 -48.96146679234207,-21.907777406205383,708.4915713146167 -48.961464757575555,-21.907774755630573,712.2309428502338 -48.96146269971799,-21.90777208565558,715.9981061664266 -48.96146061948619,-21.907769396163506,719.7929172834512 -48.96145839331168,-21.907766526935678,723.8410775173742 -48.961456143944446,-21.907763635516254,727.9198927943628 -48.96145387233778,-21.907760721766092,732.0291801370045 -48.96145157933405,-21.90775778558509,736.1687518487761 -48.96144988067682,-21.907755613084802,739.230641109067 -48.96144817101836,-21.907753428444913,742.3087097967027 -48.9614464504771,-21.907751231690252,745.4028780048758 -48.96144471909848,-21.907749022868675,748.5130641980131 -48.96144243296571,-21.907746109172813,752.6143216696819 -48.96144012792847,-21.907743175066596,756.7427726870565 -48.96143780359983,-21.90774022080323,760.8982224382571 -48.96143545948167,-21.907737246669157,765.0804722073162 -48.9614333249759,-21.907734543818375,768.8804467537659 -48.96143117347985,-21.9077318252333,772.7019644263913 -48.961429004641076,-21.907729091130363,776.5448718472036 -48.96142681818748,-21.907726341706763,780.4090142062472 -48.96142492857336,-21.907723971289922,783.7403148315639 -48.96142302584415,-21.907721589816735,787.0870243405309 -48.961421110041904,-21.9077191973586,790.4490423109368 -48.96141918128041,-21.907716793967744,793.826267521698 -48.96141693189566,-21.907713997312488,797.755837958477 -48.96141466575424,-21.907711186069342,801.7055046178924 -48.96141238331125,-21.907708360243443,805.6751068627118 -48.96141008506978,-21.907705519826344,809.6644823917055 -48.96140752726245,-21.90770236356719,814.0964012995294 -48.961404951448216,-21.90769918945844,818.552048101418 -48.96140368843243,-21.90769763443087,820.7343663804975 -48.96140353713121,-21.907697448202626,820.9956927727743 -48.96140338577163,-21.907697261913718,821.2570987174377 -48.961403234353334,-21.90769707556374,821.5185847748875 -48.9614030143293,-21.907696804800697,821.898509127231 -48.96140279418486,-21.907696533911803,822.2785980294371 -48.96140257392605,-21.907696262902693,822.6588432977918 -48.96140128165933,-21.907694673206898,824.8890407226907 -48.96139998688393,-21.907693080725927,827.122665007691 -48.96139869078264,-21.907691486595073,829.3580806792667 -48.96139739452893,-21.90768989195433,831.5936518100264 -48.961397253283856,-21.907689718164068,831.8372579808007 -48.96139711205045,-21.907689544380993,832.0808470756141 -48.96139697082867,-21.907689370605084,832.324419096867 -48.96139668841998,-21.907689023074816,832.8115119255549 -48.9613964060576,-21.907688675573276,833.2985364826578 -48.961396123741366,-21.90768832810049,833.7854927825681 -48.9613958414711,-21.907687980656494,834.2723808399284 -48.96139302124519,-21.907684507808693,839.1375112441924 -48.96139020531572,-21.90768103790386,843.9958331710584 -48.96138739331423,-21.907677571058034,848.8473612178296 -48.961384584822724,-21.907674107439437,853.6921105463061 -48.96138177943336,-21.907670647214783,858.5300961550477 -48.961380879161126,-21.907669536804512,860.0822452800916 -48.96137997916258,-21.90766842676125,861.6336989876337 -48.96137907942982,-21.907667317087725,863.1844577876504 -48.96137817995562,-21.90766620778619,864.7345221905473 -48.96137675285834,-21.90766444790859,867.1933065536698 -48.961375326381315,-21.907662688975815,869.6503450484618 -48.96137390051632,-21.907660930987888,872.1056397899176 -48.961372475263566,-21.907659173941273,874.5591929249806 -48.961369143138995,-21.90765506672082,880.292828429851 -48.96136581467472,-21.90765096446385,886.0169709532518 -48.961362490279,-21.90764686696834,891.7316495416975 -48.96135917043524,-21.907642774015002,897.4368935028233 -48.961355855603365,-21.907638685397952,903.1327318770258 -48.9613541063802,-21.907636526889455,906.1383162512303 -48.96135235869732,-21.907634369530527,909.1412871626155 -48.96135061257732,-21.907632213311874,912.1416486692195 -48.96134886802993,-21.90763005823036,915.1394047722383 -48.96134698789951,-21.907627734766947,918.3702445708028 -48.961345109571155,-21.907625412640613,921.5980620252324 -48.961343233006424,-21.90762309186828,924.8228619093653 -48.96134135815376,-21.907620772471905,928.0446489245217 -48.96133795811843,-21.907616564695218,933.8868301437104 -48.961334563116694,-21.907612361703375,939.7191211085434 -48.96133117274835,-21.90760816364639,945.5415489696336 -48.96132778668292,-21.907603970640917,951.3541408806548 -48.96132440471881,-21.90759978274885,957.1569242125198 -48.96132271259691,-21.907597687437946,960.0591956177327 -48.961321021492985,-21.907595593405016,962.9590176572632 -48.96131933142137,-21.907593500640182,965.8563938792588 -48.96131764240311,-21.907591409131282,968.7513278563821 -48.96131558885965,-21.907588866096255,972.2702624943352 -48.9613135369715,-21.907586324870145,975.785593613687 -48.96131148679965,-21.90758378542279,979.297327697622 -48.96130943840548,-21.907581247724522,982.8054712211427 -48.96130572913521,-21.90757665094743,989.1570199680224 -48.961302026164155,-21.907572059704215,995.4968245640323 -48.96129832963513,-21.90756747392805,1001.8249225928259 -48.96129463953758,-21.90756289360898,1008.1413506889182 -48.96129095571602,-21.907558318800906,1014.4461447199477 -48.961289333669995,-21.90755630381564,1017.2218637246697 -48.96128771276815,-21.90755428992829,1019.995331592008 -48.96128609298513,-21.907552277149264,1022.7665513111887 -48.961284474295354,-21.907550265487945,1025.535525850981 -48.961282344148216,-21.907547617899205,1029.17877704511 -48.961280215806475,-21.907544972281347,1032.8181460640785 -48.96127808923003,-21.90754232864725,1036.453639689393 -48.96127596438994,-21.90753968700479,1040.0852647214313 -48.961272406630094,-21.907535263609212,1046.1638626613421 -48.96126885370485,-21.90753084579219,1052.231642965636 -48.961265305697424,-21.9075264334963,1058.2886380653738 -48.96126176275398,-21.90752202664295,1064.3348803792003 -48.961258225042,-21.907517625140333,1070.3704020404402 -48.961255919590066,-21.907514756014958,1074.3028010779478 -48.961253616465996,-21.907511889111408,1078.2306581526846 -48.96125131567483,-21.907509024404536,1082.1539816339784 -48.96124901716046,-21.90750616184422,1086.0727788921752 -48.96124772136375,-21.907504547783507,1088.2816675764839 -48.96124642623934,-21.9075029343741,1090.4891189232576 -48.961245131769594,-21.907501321607814,1092.6951341717884 -48.96124383793854,-21.907499709478646,1094.8997145937235 -48.96124218802144,-21.907497653453504,1097.7104967303942 -48.96124195954201,-21.907497368719508,1098.0996820742268 -48.96124173108154,-21.90749708400521,1098.4888226951664 -48.96124150263998,-21.907496799310625,1098.8779186008244 -48.961241274218814,-21.907496514637348,1099.2669677607616 -48.96124101500855,-21.907496191586453,1099.7084450267228 -48.961240755835206,-21.907495868574127,1100.1498479567142 -48.96124049669739,-21.907495545598994,1100.5911783394135 -48.9612402375951,-21.907495222661158,1101.03243608455 -48.96123788247219,-21.907492286996582,1105.0426998330504 -48.961235530248565,-21.907489354439814,1109.0469701029003 -48.96123318091235,-21.907486425026104,1113.0452617574651 -48.96123083447499,-21.90748349880198,1117.0375898778564 -48.96122719513238,-21.907478959388982,1123.2278428060079 -48.96122356304515,-21.90747442799504,1129.4037978179756 -48.96121993842258,-21.90746990477611,1135.5655116815594 -48.96121632146168,-21.907465389818704,1141.7130400218593 -48.961212712286866,-21.907460883108378,1147.8464365389252 -48.96121084908045,-21.907458555931743,1151.0124404964897 -48.96120898795922,-21.90745623091291,1154.1746866633355 -48.96120712890738,-21.907453908027243,1157.33318187494 -48.96120527190387,-21.907451587247333,1160.4879328733323 -48.9612026336903,-21.90744828938362,1164.9692995223688 -48.9611999994758,-21.907444995642273,1169.443121614656 -48.961197369160146,-21.907441705948482,1173.90941803233 -48.961194742641865,-21.907438420239608,1178.3682076675711 -48.961191007661256,-21.907433746693126,1184.7066213943676 -48.96118727997227,-21.907429081073165,1191.0298975792589 -48.96118355943292,-21.9074244233847,1197.3380928147608 -48.96117984598402,-21.90741977369907,1203.6312646090473 -48.961176139657226,-21.90741513211871,1209.9094710900986 -48.96117420326896,-21.907412706782925,1213.1884566908477 -48.96117226886882,-21.907410283708682,1216.4633695164557 -48.96117033647226,-21.907407862904286,1219.7342177871003 -48.961168406093584,-21.90740544437568,1223.0010096617125 -48.96116577205504,-21.90740214381497,1227.457622524629 -48.96116314182477,-21.907398847496406,1231.9066992375347 -48.96116051540804,-21.907395555398047,1236.3482597460602 -48.96115789279378,-21.907392267485488,1240.782323652572 -48.9611543181122,-21.907387785032967,1246.8242755729977 -48.96115075035254,-21.907383310172452,1252.8523368351703 -48.96114718936658,-21.90737884277369,1258.8665551411493 -48.96114363498691,-21.90737438271809,1264.8669778423716 -48.961140087051206,-21.907369929922286,1270.853652350245 -48.96113767761582,-21.907366905577625,1274.9175181707053 -48.96113527106232,-21.907363884561942,1278.97506153692 -48.961132867366594,-21.907360866876157,1283.0262975852509 -48.961130466512905,-21.90735785252655,1287.071241499899 -48.96112639944013,-21.907352745703903,1293.9199950983618 -48.96112234054009,-21.907347648571704,1300.750752807734 -48.96111828985264,-21.907342561177966,1307.5635885119757 -48.96111424742582,-21.90733748354338,1314.3585753493446 -48.961110213282495,-21.907332415637338,1321.1357852207188 -48.96110778154347,-21.90732936040965,1325.2191647633445 -48.961105352803976,-21.90732630867898,1329.2961047494941 -48.961102927041395,-21.907323260419155,1333.366620332526 -48.96110050422834,-21.907320215602276,1337.4307265442776 -48.9610968633152,-21.907315639496876,1343.5352700249384 -48.96109322888616,-21.907311071036922,1349.6253799335884 -48.96108960081651,-21.907306510147496,1355.701106616759 -48.9610859789891,-21.907301956774244,1361.7625003451028 -48.96108236330875,-21.907297410888,1367.8096114564207 -48.961078572089214,-21.90729264412591,1374.1459242287558 -48.96107478752498,-21.907287885617283,1380.4665935842256 -48.96107100959369,-21.90728313537228,1386.7716777316878 -48.961067238289736,-21.907278393398855,1393.0612345751244 -48.96106347361344,-21.90727365969086,1399.3353215206132 -48.96106061363669,-21.907270063498903,1404.0987299565238 -48.96105775748395,-21.907266472060428,1408.853240243177 -48.96105490513813,-21.907262885350917,1413.5988768722868 -48.96105205657497,-21.907259303341718,1418.3356641154812 -48.961049211762656,-21.907255726000933,1423.0636260316107 -48.96104622892248,-21.9072519750548,1428.018153205973 -48.961043250126615,-21.90724822918144,1432.9630056639508 -48.961040275323796,-21.907244488346656,1437.8982107309696 -48.96103730446306,-21.907240752520686,1442.823795628667 -48.96103433749631,-21.907237021679325,1447.7397875050683 -48.961029049579906,-21.90723037266549,1456.4934372447794 -48.96102377374887,-21.90722373941766,1465.2167450060656 -48.96101850987231,-21.907217121900977,1473.9098638375094 -48.961013257871194,-21.9072105200889,1482.57294575413 -48.961008017686176,-21.907203933923682,1491.2061411384268 -48.961002789237675,-21.907197363311145,1499.809598435965 -48.96099808175661,-21.907191448099894,1507.5468118508281 -48.96099338360255,-21.907185545319805,1515.2600411302712 -48.96098869461596,-21.90717965485716,1522.9493912692035 -48.96098401463031,-21.907173776617377,1530.6149665109149 -48.96097934349455,-21.90716791052762,1538.2568705310762 -48.96097468108619,-21.907162056529295,1545.8752064560347 -48.96097002730976,-21.907156214568516,1553.470076763313 -48.96096538208524,-21.90715038459167,1561.0415831688574 -48.96096074533714,-21.90714456654476,1568.589826557024 -48.96095611700109,-21.907138760363356,1576.1149067885117 -48.96095149707473,-21.90713296594176,1583.6169223305171 -48.96094777885655,-21.907128303149435,1589.6480307401464 -48.960947217825805,-21.90712759963175,1590.5575412912067 -48.96094665692287,-21.90712689628284,1591.46671272823 -48.96094609614756,-21.907126193102552,1592.375545223313 -48.96094553549979,-21.907125490090692,1593.2840389477856 -48.96094497497952,-21.907124787247007,1594.1921940723998 -48.960943854320895,-21.907123382063308,1596.0074892043742 -48.96094273417056,-21.907121977549785,1597.8214319812605 -48.96094161452683,-21.907120573705093,1599.6340237633174 -48.9609404953876,-21.907119170528162,1601.4452659082747 -48.960938563514034,-21.90711674843494,1604.5705930006975 -48.960936633122785,-21.907114328328657,1607.6919045149114 -48.96093470419556,-21.907111910208492,1610.8092073918908 -48.96093277671219,-21.90710949407513,1613.9225085527185 -48.96093085065156,-21.907107079930288,1617.0318149009745 -48.96092796568357,-21.90710346432858,1621.685877742837 -48.960925083795765,-21.90709985321113,1626.3310002162018 -48.96092220492472,-21.907096246586384,1630.9672053655054 -48.96091932901805,-21.907092644459013,1635.5945161481416 -48.96091645603722,-21.907089046827664,1640.212955429763 -48.96091304920498,-21.9070847817996,1645.6841527785807 -48.96090964644898,-21.90708052306628,1651.1429177119858 -48.960906247778475,-21.907076270583765,1656.589287884348 -48.960902853218,-21.90707202429676,1662.0233007019942 -48.96089946279801,-21.907067784144193,1667.4449933236535 -48.96089607654718,-21.907063550063942,1672.8544026631816 -48.96089193252024,-21.907058369530752,1679.4667598753865 -48.960887794783346,-21.90705319792976,1686.0607924087542 -48.9608836632914,-21.907048035185568,1692.636566671016 -48.960879537956195,-21.90704288124964,1699.1941486091057 -48.96087541865951,-21.90703773609742,1705.7336037639595 -48.960871305270246,-21.90703259971831,1712.254997275258 -48.960867197661045,-21.907027472104673,1718.7583938702876 -48.96086309572078,-21.907022353242663,1725.2438578479716 -48.96085899936304,-21.907017243106463,1731.7114530732156 -48.96085490853018,-21.907012141657003,1738.1612429919403 -48.960850823192445,-21.907007048840203,1744.5932906105222 -48.96084674334182,-21.907001964586954,1751.0076584625328 -48.96084266898234,-21.906996888817975,1757.4044086039985 -48.96083860011821,-21.9069918214508,1763.7836026190107 -48.960834536743164,-21.90698676240752,1770.1453016415394 -48.960830478836414,-21.90698171162346,1776.4895664261956 -48.9608264263611,-21.906976669046273,1782.816457336101 -48.960822379256946,-21.906971634631034,1789.1260342554021 -48.96082175943326,-21.906970863733147,1790.0915663768055 -48.96082113973326,-21.906970093025972,1791.0566933799553 -48.960820520156645,-21.90696932250939,1792.021415477846 -48.9608199007031,-21.906968552183308,1792.985732883414 -48.96081928137232,-21.90696778204763,1793.9496458094416 -48.96081804307771,-21.9069662423472,1795.8762590727497 -48.96081680527021,-21.90696470340749,1797.8012569655132 -48.960815567947215,-21.90696316522786,1799.7246411822437 -48.96081433110619,-21.906961627807696,1801.6464134140745 -48.9608121623486,-21.906958932389866,1805.0140820689492 -48.96080999505397,-21.906956239304094,1808.3768034448299 -48.96080782921036,-21.906953548546493,1811.7345865970387 -48.960805664807076,-21.906950860112712,1815.0874405487998 -48.960803501834704,-21.906948173997723,1818.4353742921382 -48.96080048886727,-21.906944433217035,1823.094443127146 -48.96079747864797,-21.906940696913484,1827.743991413211 -48.96079447116396,-21.906936965066343,1832.3840431879075 -48.96079146640607,-21.906933237652478,1837.014622359847 -48.96078846436754,-21.906929514646865,1841.635752708712 -48.960784287350265,-21.906924336171304,1848.0568209365447 -48.96078011558088,-21.906919166126805,1854.459666228603 -48.96077594903454,-21.906914004445788,1860.8443516336245 -48.960771787674716,-21.906908851067776,1867.2109397592978 -48.96076763145337,-21.906903705940152,1873.5594927861466 -48.96076348031136,-21.906898569016455,1879.8900724565535 -48.960758182746865,-21.90689201629033,1887.9540160080746 -48.960752893213005,-21.906885476822843,1895.9888345146544 -48.96074761156301,-21.906878950545384,1903.9946539232026 -48.96074233767287,-21.90687243738409,1911.971599123369 -48.960737071447866,-21.90686593725021,1919.9197938951377 -48.960731812815276,-21.90685945003687,1927.8393608470303 -48.96072656171022,-21.906852975624645,1935.730421408178 -48.96072131806677,-21.906846513893687,1943.593095917637 -48.96071608181626,-21.90684006473365,1951.4275037312168 -48.9607108528837,-21.906833628045103,1959.2337632319573 -48.96070563118312,-21.90682720373929,1967.0119918152725 -48.960701356342426,-21.906821946991286,1973.3668889809758 -48.96069708623574,-21.906816698465573,1979.7030942878214 -48.96069282079885,-21.906811458115982,1986.0206707983284 -48.96068855996631,-21.906806225897434,1992.3196811291573 -48.960684303678235,-21.906801001768024,1998.6001875120053 -48.96068005188112,-21.906795785684928,2004.8622517588426 -48.96067580453057,-21.90679057759897,2011.1059352238333 -48.96067156158843,-21.90678537745801,2017.3312988266646 -48.960667323022356,-21.906780185209936,2023.5384030851462 -48.96066308880183,-21.906775000804355,2029.7273081160617 -48.96065885889491,-21.90676982419126,2035.8980736087015 -48.96065463326652,-21.906764655320053,2042.050758810597 -48.9606491771354,-21.90675798498815,2049.977548105013 -48.96064372799498,-21.90675132740912,2057.874348905795 -48.96063828574101,-21.90674468248819,2065.7412861484913 -48.96063285026265,-21.906738050135626,2073.5784836644275 -48.96062742144862,-21.90673143026337,2081.3860641893384 -48.96062199919383,-21.906724822782778,2089.164149384184 -48.9606165834377,-21.906718227619034,2096.912860163151 -48.960615761508144,-21.906717227074463,2098.0871096338706 -48.96061493973361,-21.906716226814794,2099.2606848236783 -48.96061411811464,-21.90671522684004,2100.4335861557493 -48.960613296651744,-21.90671422715016,2101.6058140522086 -48.96061247534583,-21.906713227745307,2102.7773689381092 -48.96061083320901,-21.9067112297914,2105.118461377985 -48.9606091917121,-21.9067092329797,2107.456866868101 -48.960607550861056,-21.906707237310762,2109.7925887750594 -48.960605910659964,-21.90670524278432,2112.1256304394165 -48.96060347739958,-21.906702284518488,2115.5835062585847 -48.960601045577896,-21.906699328761277,2119.0354955843322 -48.96059861518724,-21.906696375502715,2122.4816090318923 -48.96059618621228,-21.90669342472972,2125.9218571054894 -48.96059375863121,-21.906690476426746,2129.356250212885 -48.96059049233495,-21.90668651075727,2133.9710228607246 -48.96058722843872,-21.906682549487037,2138.5752256361648 -48.96058396685846,-21.906678592567914,2143.1688833242406 -48.96058070751095,-21.90667463995337,2147.7520205921664 -48.96057745032072,-21.906670691601292,2152.3246620546374 -48.96057363373217,-21.906666067300225,2157.673026297602 -48.960569819954365,-21.90666144876669,2163.0070334401184 -48.96056600895538,-21.906656835972314,2168.326723318053 -48.96056220073935,-21.90665222890272,2173.632135845692 -48.96055839533849,-21.906647627554396,2178.923310945111 -48.960554592804584,-21.906643031932187,2184.2002884798267 -48.96054989450743,-21.906637356745296,2190.706422217494 -48.96054520081115,-21.906631690343573,2197.190979320428 -48.96054051180876,-21.906626032726162,2203.654033521572 -48.96053582754271,-21.906620383869516,2210.0956575177606 -48.960531147995674,-21.906614743727157,2216.5159229303113 -48.96052647309595,-21.906609112233397,2222.9149003756334 -48.960521802730504,-21.90660348930764,2229.2926595771673 -48.96051713676301,-21.90659787485934,2235.649269507495 -48.960512475053704,-21.906592268796082,2241.9847985745055 -48.96050781747829,-21.906586671033104,2248.2993148200812 -48.96050316394318,-21.906581081500022,2254.5928860735344 -48.960498514394374,-21.906575500143084,2260.865580025301 -48.96049386881625,-21.90656992692426,2267.117464218564 -48.960489227225644,-21.906564361818123,2273.3486059913103 -48.9604845896628,-21.90655880480773,2279.55907239165 -48.96047924789567,-21.90655240793975,2286.693792528957 -48.96047391161436,-21.906546021791122,2293.8012193156933 -48.9604685808493,-21.906539646324983,2300.8814528306375 -48.96046325558228,-21.906533281485302,2307.9345918671634 -48.96045793574864,-21.90652692719631,2314.9607339459412 -48.96045262124742,-21.90652058336804,2321.959975432329 -48.96044731195572,-21.906514249905058,2328.93241170837 -48.960442007747,-21.90650792671399,2335.878137351226 -48.96043670851081,-21.906501613707903,2342.7972462855987 -48.960431414167374,-21.90649531080846,2349.6898318868193 -48.960426124671606,-21.906489017947234,2356.5559870252523 -48.96042084000789,-21.906482735066387,2363.395804057421 -48.96041490302129,-21.90647568163903,2371.056036968677 -48.96040897217005,-21.906468640711196,2378.683209154105 -48.96040304747018,-21.906461612224277,2386.277448964293 -48.960397128918004,-21.906454596114447,2393.8388834107436 -48.96039121648101,-21.906447592307767,2401.3676380797324 -48.96038531009265,-21.906440600716653,2408.8638370811836 -48.96037940965779,-21.90643362124222,2416.327603113245 -48.96037351506707,-21.90642665377896,2423.759057595566 -48.96036762621235,-21.90641969822252,2431.158320843227 -48.96036174299813,-21.906412754473582,2438.5255121796013 -48.96035586534783,-21.90640582244217,2445.8607500305584 -48.96034999320931,-21.906398902048767,2453.164151976603 -48.96034412655382,-21.906391993221938,2460.435834733211 -48.96033826536714,-21.90638509589652,2467.6759140992485 -48.96033240964073,-21.90637821000841,2474.8845048651133 -48.96032655936285,-21.906371335490174,2482.0617207305045 -48.96032071451039,-21.90636447226911,2489.2076742546456 -48.960314875043686,-21.90635762026849,2496.3224768561176 -48.960308411938996,-21.90635004220338,2504.1684588428234 -48.96030195527851,-21.90634247770833,2511.976491347417 -48.960295504956136,-21.906334926673512,2519.7467212917036 -48.960289060870956,-21.90632738898638,2527.479294129956 -48.96028262293739,-21.906319864536684,2535.174353974433 -48.960276191085164,-21.90631235321718,2542.8320436216068 -48.96026976525555,-21.906304854926464,2550.4525045855526 -48.96026334540396,-21.906297369577988,2558.035877233984 -48.96025807171379,-21.906291225056517,2564.2429420305834 -48.960253750920735,-21.906286193746244,2569.31339763266 -48.96025306705784,-21.90628539767144,2570.1146681514374 -48.96025238326207,-21.906284601740797,2570.9155203069695 -48.960251699533345,-21.906283805954626,2571.7159542695204 -48.96025101587162,-21.906283010313075,2572.5159702074548 -48.96025033227684,-21.90628221481607,2573.3155682862016 -48.96024896528794,-21.906280624255274,2574.9135115255444 -48.960247598566234,-21.906279034270934,2576.5097852994827 -48.96024623211133,-21.90627744486201,2578.1043909202667 -48.96024486592285,-21.906275856027754,2579.6973297009795 -48.960243500000374,-21.90627426776745,2581.2886029520937 -48.96024086174277,-21.90627120081622,2584.358285105687 -48.96023822447271,-21.90626813599774,2587.4217644981286 -48.96023558818614,-21.90626507330527,2590.4790504707344 -48.96023295287868,-21.906262012732025,2593.5301523249937 -48.96023031854568,-21.90625895427124,2596.5750793239836 -48.960225676554025,-21.906253567304883,2601.9282985045115 -48.96022103754763,-21.90624818684579,2607.262403924385 -48.96021640149711,-21.906242812856235,2612.5774454769667 -48.960211768373014,-21.906237445298636,2617.8734727056058 -48.96020713814693,-21.90623208413599,2623.1505348164355 -48.96020251079227,-21.906226729332197,2628.4086806892124 -48.960195340885775,-21.90621843825818,2636.5250671399112 -48.960188177776416,-21.906210162253675,2644.596263802794 -48.96018102149009,-21.906201901163456,2652.6224480853493 -48.96017387210301,-21.90619365481915,2660.603795326251 -48.96016672965472,-21.906185423066177,2668.540478926962 -48.96015959407714,-21.90617720578851,2676.432670490149 -48.960154030466384,-21.906170803414913,2682.5605705542143 -48.96014972091565,-21.906165847016997,2687.291721975893 -48.96014541371569,-21.90616089584865,2692.006743694035 -48.96014110882959,-21.906155949889627,2696.705672362203 -48.960136806222415,-21.906151009119263,2701.3885444103103 -48.960132505863584,-21.906146073516165,2706.055396046855 -48.960128207729916,-21.9061411430567,2710.7062632522943 -48.96012257724389,-21.906134688140593,2716.7782975845157 -48.960116950543124,-21.906128241948615,2722.8230104212153 -48.96011132763171,-21.90612180440848,2728.840481039608 -48.96010570852305,-21.90611537544648,2734.830788083062 -48.96010009323285,-21.90610895499005,2740.7940095616595 -48.96009448177326,-21.90610254296931,2746.730222848048 -48.96008740868019,-21.906094466471597,2754.180040534701 -48.9600803416689,-21.9060864031719,2761.5871560956216 -48.96007328068433,-21.906078352963803,2768.951720539321 -48.96006622563818,-21.90607031575193,2776.2738832720584 -48.960059176421076,-21.906062291446155,2783.553792100148 -48.96005213291817,-21.906054279956933,2790.7915932645265 -48.96004509501998,-21.906046281190786,2797.9874314554413 -48.96003806263293,-21.90603829504709,2805.141449841726 -48.96003103569196,-21.90603032142094,2812.2537901890523 -48.96002401415937,-21.90602236020337,2819.324592874486 -48.96001699801752,-21.906014411281316,2826.3539968679656 -48.96000998726162,-21.906006474543013,2833.342139782599 -48.960002981884784,-21.90599854987384,2840.2891577600008 -48.95999598187476,-21.905990637158496,2847.1951854964623 -48.959988987208995,-21.905982736288568,2854.0603563341897 -48.959981997844814,-21.90597484716172,2860.8848022179523 -48.95997501371721,-21.90596696968002,2867.6686536774805 -48.959968034748776,-21.90595910374999,2874.4120398932514 -48.95996106086223,-21.90595124928205,2881.115088767536 -48.95995409198663,-21.905943406188122,2887.7779269381977 -48.95994712805703,-21.905935574379413,2894.400679764147 -48.959939287191546,-21.90592676317395,2901.8150969780017 -48.95993145246065,-21.90591796605004,2909.1789549019545 -48.959923623811115,-21.90590918287168,2916.492427151797 -48.95991580120158,-21.905900413500728,2923.755685375038 -48.95990798459894,-21.90589165779956,2930.9688992919823 -48.95990017397338,-21.905882915630713,2938.132236686574 -48.95989236928259,-21.905874186858437,2945.245863371572 -48.95988457046956,-21.905865471357032,2952.3099433202633 -48.95988340632792,-21.90586417095202,2953.3606216890607 -48.95988224231649,-21.90586287083973,2954.410199263295 -48.95988107843486,-21.905861571019532,2955.4586765742815 -48.959879914682475,-21.905860271490987,2956.5060541540083 -48.95987875105904,-21.905858972253753,2957.552332536542 -48.95987758756441,-21.905857673307484,2958.5975122557034 -48.95987565778532,-21.905855519191675,2960.328886686154 -48.95987372835901,-21.905853365873366,2962.057241715109 -48.95987179928417,-21.905851213350527,2963.782579752579 -48.95986987055949,-21.905849061621357,2965.5049032049865 -48.95986794218367,-21.905846910684158,2967.2242144736188 -48.95986322111422,-21.905841646436546,2971.4220504863483 -48.95985850211172,-21.905836386902546,2975.6018703896307 -48.95985378515867,-21.90583113205615,2979.763708924856 -48.95984907023789,-21.90582588187121,2983.9076005915717 -48.959844357332926,-21.905820636321945,2988.0335796577165 -48.959837999574766,-21.90581356379902,2993.5740002259195 -48.95983164542682,-21.90580649961165,2999.0819354161913 -48.95982529485942,-21.905799443696534,3004.5574674895256 -48.95981894784668,-21.90579239598971,3010.0006779457053 -48.959812604365425,-21.905785356426847,3015.4116475290034 -48.95980626439427,-21.905778324943437,3020.790456231427 -48.959797683930034,-21.905768815191866,3028.023678846179 -48.9597891098126,-21.905759319979246,3035.1982568985177 -48.95978054198384,-21.905749839146324,3042.3143825423954 -48.95977198037802,-21.905740372536748,3049.3722454880435 -48.959763424921825,-21.905730919998348,3056.3720330523315 -48.95975487553659,-21.905721481383058,3063.3139301999936 -48.9597463321412,-21.905712056545788,3070.1981195722756 -48.95973779465466,-21.905702645343332,3077.0247815138155 -48.95972926299806,-21.90569324763381,3083.794094104619 -48.95972073709624,-21.905683863276415,3090.5062331935724 -48.95971221687911,-21.905674492131258,3097.1613724301637 -48.9597037022824,-21.90566513405909,3103.7596832923155 -48.95969519324718,-21.905655788920985,3110.301335103669 -48.95968668971809,-21.905646456578047,3116.786495045114 -48.959678191641444,-21.905637136892068,3123.2153281789715 -48.959668641756714,-21.905626671586113,3130.3776535975194 -48.959659098621636,-21.905616221917512,3137.469184711157 -48.95964956215392,-21.90560578769331,3144.4901467996633 -48.95964003226793,-21.905595368725287,3151.4407619406697 -48.95963050887587,-21.90558496483098,3158.3212490761334 -48.959620991888656,-21.90557457583156,3165.1318240232517 -48.959611481216605,-21.905564201548774,3171.872699468618 -48.95960197677078,-21.905553841804284,3178.544085004584 -48.959592478464465,-21.905543496421373,3185.146187204241 -48.9595829862141,-21.90553316522613,3191.679209685418 -48.95957349993974,-21.905522848046694,3198.1433531383827 -48.95956401956492,-21.905512544711954,3204.538815340396 -48.95955454501613,-21.90550225505151,3210.865791186041 -48.9595450762181,-21.905491978892517,3217.124472583828 -48.95953561308736,-21.905481716054002,3223.3150482660485 -48.95952515764397,-21.905470385290005,3230.079971152349 -48.95951470888691,-21.905459070328977,3236.762126734094 -48.95950426670672,-21.905447770943354,3243.36175839384 -48.959493831016026,-21.905436486927755,3249.8791061262214 -48.95948340174022,-21.905425218088254,3256.314406269673 -48.95947297880607,-21.90541396423398,3262.6678912878847 -48.959462562138086,-21.90540272517628,3268.9397897952986 -48.95945215166051,-21.90539150072963,3275.1303266546856 -48.959441747296786,-21.905380290708223,3281.2397229472767 -48.95943134896565,-21.905369094920594,3287.2681958640187 -48.95942095657769,-21.9053579131678,3293.2159586778785 -48.95941057003605,-21.905346745246227,3299.0832208496327 -48.9593988755339,-21.905334179883845,3305.5970487489035 -48.959387188182596,-21.905321631527,3312.0092547066433 -48.95937550784353,-21.905309099888964,3318.3201220161477 -48.95936383438396,-21.905296584688156,3324.529928510782 -48.95935216767854,-21.90528408565093,3330.6389467172194 -48.95934050761032,-21.905271602513672,3336.647443985866 -48.95932885407007,-21.905259135022227,3342.555682548645 -48.95931720695484,-21.905246682930958,3348.3639195595874 -48.95930556616672,-21.90523424600212,3354.072407140133 -48.95929393161104,-21.905221824003814,3359.681392381382 -48.95928230319411,-21.905209416708058,3365.191117346493 -48.95927068082244,-21.905197023891045,3370.6018191290536 -48.959259064403106,-21.905184645331055,3375.9137298598066 -48.959247453841215,-21.90517228080554,3381.127076677824 -48.95923584903928,-21.90515993009568,3386.242081893799 -48.9592242499034,-21.905147592987742,3391.258963112782 -48.95921485449247,-21.905137605287614,3395.2526247362716 -48.95921323670277,-21.905135886001577,3395.933963767995 -48.95921161901981,-21.90513416697215,3396.6133994384477 -48.95921000144328,-21.905132448198906,3397.2909323104195 -48.959208383972914,-21.90513072968134,3397.966562942988 -48.959206766608474,-21.90512901141887,3398.640291891758 -48.959203532196305,-21.905125575656935,3399.982046950411 -48.95920029820478,-21.905122140908414,3401.3162018932 -48.95919706463187,-21.90511870716884,3402.642761106789 -48.95919383147563,-21.90511527443381,3403.961728952072 -48.959188225097854,-21.90510932330735,3406.231267242594 -48.95918261995729,-21.905103375166515,3408.478006894543 -48.959177016043974,-21.905097429988764,3410.7019700576875 -48.95917141334811,-21.905091487751807,3412.9031786406736 -48.95916581186006,-21.905085548433632,3415.081654325607 -48.95915690656693,-21.905076109400476,3418.4992046597968 -48.95914800426754,-21.9050666776087,3421.859405220526 -48.95913910492624,-21.9050572529753,3425.1623395796155 -48.95913020850863,-21.90504783541954,3428.4080898450306 -48.959121314981566,-21.90503842486299,3431.596736683168 -48.95911005420272,-21.905026515024158,3435.553749066397 -48.95909879794789,-21.905014616143433,3439.4194311515794 -48.95908754615769,-21.905002728077502,3443.193937163906 -48.95907629877558,-21.904990850688975,3446.877417807964 -48.95906505574751,-21.904978983846444,3450.4700203145067 -48.95905381702184,-21.904967127424538,3453.971888496311 -48.95903704230504,-21.904949441549952,3459.032568824221 -48.95902027691879,-21.904931778275696,3463.8916872345226 -48.95900352072148,-21.904914137260963,3468.5496819280083 -48.958986773584506,-21.904896518197134,3473.0069757418573 -48.95897003539265,-21.904878920808997,3477.2639767272135 -48.958953306044684,-21.904861344855874,3481.32107877437 -48.958936585453955,-21.904843790132595,3485.1786622876843 -48.958919873548915,-21.904826256470244,3488.8370949101736 -48.958903170273295,-21.904808743736364,3492.296732295948 -48.958886475586034,-21.90479125183446,3495.5579189302316 -48.95886978946074,-21.904773780702687,3498.620988996813 -48.95885311188474,-21.904756330311642,3501.4862672917693 -48.9588345136011,-21.904736884133328,3504.4501871254097 -48.95881592597548,-21.90471746381189,3507.168688919699 -48.95879734903498,-21.9046980694117,3509.642191691857 -48.95877878281411,-21.904678701014326,3511.8711068324137 -48.95876022734946,-21.90465935870561,3513.855840354685 -48.95874168267436,-21.904640042562356,3515.596795553646 -48.95872314881362,-21.904620752639353,3517.0943763426753 -48.95870462577935,-21.90460148895752,3518.348991673755 -48.95868611356737,-21.90458225149299,3519.361061605766 -48.958667612153,-21.90456304016446,3520.1310254576156 -48.95864912148312,-21.90454385481219,3520.6593524799446 -48.95863064146037,-21.904524695156226,3520.9465547059003 -48.95861781558511,-21.904511406057836,3521.0044327694814 -48.95861688125996,-21.904510438255418,3521.0041220133608 -48.95861657080146,-21.904510116683078,3521.0038487854845 -48.95861626034587,-21.904509795117704,3521.0035077050507 -48.95861296085594,-21.904506377777196,3520.9960510727205 -48.958609661691966,-21.90450296121854,3520.980933372349 -48.95860636285168,-21.904499545435673,3520.958158443681 -48.958597326692264,-21.904490191172265,3520.8565656548735 -48.958588292881785,-21.904480842515486,3520.6976120942004 -48.958579261343246,-21.904471499260715,3520.48138283014 -48.95857023197898,-21.90446216114922,3520.2079666032973 -48.958556465522335,-21.904447929092328,3519.681082436539 -48.95854270328142,-21.904433706792236,3519.0217168050212 -48.95852894453995,-21.90441949237982,3518.2301649153624 -48.958515188419554,-21.904405283566252,3517.3066767136793 -48.95850143389977,-21.904391077691894,3516.251428112018 -48.958489239438464,-21.904378482740174,3515.205694683944 -48.95847704460825,-21.904365885832355,3514.056401009676 -48.95846484874745,-21.90435328520404,3512.803403403558 -48.958452651404045,-21.904340679605387,3511.446446536938 -48.9584419540067,-21.90432962108499,3510.1706636230774 -48.958439152330364,-21.9043267349301,3509.8238791085914 -48.95843635786229,-21.904323866612106,3509.4758544890838 -48.95843078323264,-21.904318165374843,3508.7773376938508 -48.95842523699688,-21.904312534388783,3508.073911261109 -48.958419718723604,-21.90430697257687,3507.3656264014103 -48.95838381227795,-21.904271777928795,3502.550574215097 -48.95834900532392,-21.90423930004691,3497.5398700993183 -48.95831520267933,-21.90420930087965,3492.3494091897073 -48.958282320350534,-21.904181570144218,3486.9952859581695 -48.95823427146256,-21.90414360307638,3478.639248162748 -48.95818792052925,-21.9041098042915,3469.9977246884387 -48.95814306862059,-21.904079674289672,3461.1180779401984 -48.95809953956073,-21.904052770383416,3452.0423236492593 -48.958040044016826,-21.904019526662434,3438.966963317852 -48.95798249435661,-21.90399097600887,3425.656864283571 -48.95792657005096,-21.903966311983783,3412.1768803626833 -48.95787200113825,-21.90394485534138,3398.5762386174247 -48.95781856498822,-21.90392604580307,3384.8916495197573 -48.957735954808584,-21.90390060597488,3363.147776471982 -48.95765515699383,-21.90387921844649,3341.3286815878723 -48.95757575636549,-21.903860838745473,3319.4763741145835 -48.95749745187283,-21.903844709689977,3297.6155824913994 -48.95742002615524,-21.903830284777662,3275.759541948986 -48.95734332250007,-21.90381717017989,3253.915755408324 -48.95726722809816,-21.903805082547485,3232.0888854683762 -48.95719166149561,-21.903793817799183,3210.281221316941 -48.95710644899532,-21.903781839096208,3185.5532174015357 -48.95702175515081,-21.90377055377102,3160.853465410584 -48.95693751465909,-21.903759832010223,3136.183261223062 -48.9568536821525,-21.903749585568367,3111.5431932064475 -48.956796701962276,-21.903742836787018,3094.7480134873326 -48.95673989318016,-21.903736270275644,3077.9667492417084 -48.956683250165185,-21.90372987477589,3061.199464348726 -48.95656151041089,-21.903716617087095,3025.0476225469665 -48.956440493685086,-21.90370405718553,2988.960491979549 -48.956320185309146,-21.90369216646105,2952.937549737318 -48.95620057684719,-21.903680929084633,2916.978330182363 -48.95613900864203,-21.90367537019373,2898.411601863192 -48.95607762477588,-21.903669980884345,2879.8617759924978 -48.956016424723835,-21.90366476027589,2861.328765124757 -48.95595542626123,-21.90365970917344,2842.8180342197707 -48.95589461072297,-21.903654825458062,2824.3239875084205 -48.955833977802186,-21.90365010869197,2805.846566537051 -48.955677699618306,-21.9036386597895,2758.040507512273 -48.95552264214504,-21.9036283249961,2710.344677495262 -48.95536880181205,-21.903619100247752,2662.75806322047 -48.9553185777535,-21.903616314205475,2647.1642664101355 -48.95526848772501,-21.903613645929404,2631.5821095000697 -48.9552185468622,-21.903611089266835,2616.0116528133813 -48.95515946412626,-21.903608182637118,2597.534243261608 -48.95510067401093,-21.903605400116323,2579.0736159904204 -48.955042212960585,-21.90360272688866,2560.629860773396 -48.95494634261737,-21.903598522817617,2530.174548441763 -48.954851526909714,-21.90359455367439,2499.7651957865273 -48.954757806253404,-21.903590802294715,2469.40150012908 -48.954665205136834,-21.903587257872793,2439.0831474008837 -48.95456071244931,-21.903583446442877,2404.4688045321113 -48.95445772313526,-21.903579887085886,2369.9131179870456 -48.954356245533305,-21.90357657499912,2335.4156652444776 -48.95428032791682,-21.903574227072365,2309.3025765474104 -48.95420528160415,-21.90357201875697,2283.222533012583 -48.95413110611046,-21.90356994962177,2257.1753797936767 -48.95407073913584,-21.903568351519947,2235.772580450348 -48.95401096079013,-21.903566847112458,2214.391836380008 -48.953951770625046,-21.90356543623539,2193.033054703321 -48.953828245846225,-21.9035627541183,2147.8304415915895 -48.953707356539304,-21.90356049043819,2102.7252622241454 -48.95367754602545,-21.903559989995742,2091.464108046761 -48.95364791849493,-21.903559523368823,2080.2089765240544 -48.953618517303,-21.903559108594695,2068.959851196962 -48.953579756869374,-21.903558674306392,2053.9693157946886 -48.95354159352417,-21.903558413125293,2038.9894052996603 -48.953504107995784,-21.903558358622636,2024.020082712606 -48.95344876485671,-21.90355872012557,2001.3758322864655 -48.9533952895734,-21.903559686120406,1978.7555229857637 -48.953343779179434,-21.903561297077307,1956.1589206053704 -48.95329430336001,-21.90356358211592,1933.5857805788253 -48.95322594430242,-21.903568163499052,1900.7286822184506 -48.9531621200454,-21.903574266156948,1867.920563296855 -48.953102880071974,-21.903581911192596,1835.1609381984222 -48.95304825286389,-21.903591110981857,1802.4493826763755 -48.95299525395821,-21.903602604787636,1767.7251494067782 -48.9529474915238,-21.90361586662049,1733.0545731511268 -48.95290496692154,-21.90363089768645,1698.437278635268 -48.952882389473025,-21.903640570094584,1678.0903946377002 -48.952861623950966,-21.9036508547294,1657.761759086326 -48.952842668830804,-21.903661751085668,1637.4513164604325 -48.952825432838445,-21.903673324150443,1617.0466843754857 -48.952810024543844,-21.903685514821237,1596.6603145851186 -48.95279644244679,-21.903698322603482,1576.2921401510218 -48.952791121877524,-21.903704067551466,1567.4638952314815 -48.95278615864989,-21.903709919423125,1558.639179963588 -48.95278157249271,-21.903715865616697,1549.8181473608322 -48.95277738291312,-21.9037218936571,1541.0009413967068 -48.95277025176306,-21.90373415783454,1523.3783027178458 -48.952764865673096,-21.903746647208468,1505.7716576262517 -48.95276129764725,-21.90375931436632,1488.181124974243 -48.95275960159537,-21.903772123959683,1470.6067157135851 -48.95276154659347,-21.90379621792846,1437.9966850565256 -48.95277025759941,-21.903820599090114,1405.4417294966152 -48.95278581959715,-21.90384520574734,1372.941101768657 -48.95280827795521,-21.903870001381573,1340.4941902515316 -48.952839045393844,-21.90389601312235,1306.740685704674 -48.95287733668699,-21.903922190520227,1273.044844791602 -48.95287786215398,-21.903922518249047,1272.624650313504 -48.95288003194394,-21.903923858135634,1270.9073868955265 -48.952882221319044,-21.903925198424677,1269.1902717664689 -48.95291508173987,-21.90394416010375,1244.963067309723 -48.95291523583013,-21.90394424405284,1244.85668136649 -48.952915390218465,-21.903944328007928,1244.7508657622097 -48.952915699584985,-21.903944495929974,1244.5403591833322 -48.9529160101188,-21.903944663875507,1244.3320700268737 -48.952916321795506,-21.90394483184404,1244.1259359508028 -48.95291785424327,-21.903945649606197,1243.1517413621414 -48.95291941076259,-21.90394646785225,1242.2209768571656 -48.95292098931076,-21.90394728654084,1241.3285061111546 -48.952922588125666,-21.90394810563628,1240.4699393735455 -48.95292502918872,-21.903949339056016,1239.2335349749192 -48.95292750840196,-21.903950573240348,1238.054919851712 -48.952930022197684,-21.903951808117085,1236.9255243776656 -48.95293256757408,-21.90395304362552,1235.8382399524353 -48.95293514203254,-21.90395427971512,1234.7872570450998 -48.95293990373287,-21.903956534650973,1232.9491680310373 -48.95294474477108,-21.903958791168204,1231.19279502086 -48.95294965691658,-21.903961049100417,1229.5004088936148 -48.952954633806065,-21.903963308318964,1227.8589527183372 -48.952959670255844,-21.903965568719034,1226.2582344550347 -48.95296476197539,-21.90396783021386,1224.6901789942574 -48.95297277609538,-21.903971346604035,1222.303886498347 -48.95298090453356,-21.90397486525038,1219.9638708190134 -48.952989138894175,-21.903978385982867,1217.657544227019 -48.95299747245397,-21.90398190866526,1215.3758228145482 -48.95300589976715,-21.903985433187138,1213.112133856314 -48.95301799873725,-21.90399043265088,1209.9249304692155 -48.953030267196034,-21.903995435427223,1206.7553912609799 -48.953042697242054,-21.904000441355617,1203.5973713983897 -48.953055282704035,-21.904005450310564,1200.4469488583597 -48.95306801872874,-21.904010462193316,1197.301668769299 -48.95308433729828,-21.904016805413654,1193.32833750451 -48.95310088452274,-21.90402315306916,1189.3585754829035 -48.95311765577783,-21.904029505065605,1185.3911752948868 -48.9531346476156,-21.90403586133269,1181.425521889453 -48.95315284263897,-21.904042583732885,1177.2357375916902 -48.953171278856594,-21.904049310797404,1173.0471945375655 -48.953189954423074,-21.904056042488595,1168.8597078285732 -48.95320879930831,-21.904062754473326,1164.6882790811544 -48.95322787942459,-21.90406947100253,1160.5177637871525 -48.953247193998706,-21.904076192060398,1156.3481410551467 -48.953266666265584,-21.90408289157418,1152.1955429961415 -48.953286370137974,-21.904089595560347,1148.0438078613633 -48.95330630526551,-21.904096304011727,1143.8929306621612 -48.95334301588262,-21.90410847104682,1136.373741112815 -48.95338048376048,-21.90412065270104,1128.857349860092 -48.95341870800291,-21.904132848955886,1121.343748404845 -48.95346388566627,-21.904146981076593,1112.6522342103547 -48.953510074724356,-21.904161132718627,1103.9644454848217 -48.95355727457697,-21.904175303869366,1095.2803774904678 -48.95363581615696,-21.904198283524583,1081.2316537455954 -48.95365586479635,-21.904204036324074,1077.7209897688276 -48.95367606674824,-21.904209784901973,1074.2109481737182 -48.95369639484182,-21.90421551243747,1070.7015751801962 -48.95372732139474,-21.90422409429357,1065.3929105919233 -48.95375837941371,-21.904232530598357,1060.086084978096 -48.95378950764057,-21.904240783466413,1054.7812275879703 -48.953833193762605,-21.904252001543217,1047.3482076514945 -48.95387685666452,-21.904262759654806,1039.919300681977 -48.953920463019415,-21.90427303738602,1032.4944648664327 -48.95396399201655,-21.904282822089126,1025.073634304771 -48.95398827876098,-21.90428807108891,1020.9278642825385 -48.954012533273165,-21.904293161196737,1016.7833727235742 -48.95403675423735,-21.90429809164072,1012.6401441898029 -48.95406099293996,-21.90430287198551,1008.4892112003538 -48.95408519619785,-21.904307490975217,1004.3395387799576 -48.95410936346308,-21.90431194831297,1000.1911253693082 -48.95415750639286,-21.904320363447905,991.9121973523477 -48.95420550231901,-21.904328132502158,983.6382646647124 -48.95425334988244,-21.90433525497076,975.3693130743329 -48.954301026216484,-21.90434172792467,967.109186519865 -48.9543485534445,-21.904347555020568,958.8540114157367 -48.95439593146013,-21.90435273652629,950.6037756957418 -48.95444310924426,-21.904357268196765,942.3673796555914 -48.95449013811956,-21.90436115632376,934.1358883471357 -48.954537018133934,-21.904364401267088,925.9092900404129 -48.95467021657237,-21.904370134222763,902.4182911783099 -48.95480220095466,-21.90437062265078,878.9669175546225 -48.9549329731387,-21.904365875308567,855.5549078219765 -48.95495702403545,-21.904364424248428,851.229628667047 -48.954981033486,-21.90436279445402,846.9056809242874 -48.955005001615206,-21.904360986038856,842.5830688411248 -48.95502892794908,-21.904359002022023,838.2617597945673 -48.955051675562366,-21.904356962355497,834.1470443113774 -48.95507438037569,-21.90435479450599,830.0332813749137 -48.955097039670115,-21.90435251579108,825.9203612793251 -48.95513992430107,-21.904347924119406,818.1146161789428 -48.95518262789273,-21.90434304138146,810.3115315984348 -48.95522514623276,-21.904337894714807,802.5112230457711 -48.95526747701394,-21.904332499206838,794.7137927272711 -48.955289549554806,-21.904329582308048,790.6351336939405 -48.95531156998665,-21.904326602350523,786.5571785355954 -48.95533353819866,-21.90432356010071,782.4799659769542 -48.955355450345955,-21.904320456677368,778.4042055243873 -48.95537731015522,-21.904317291987674,774.3291915324379 -48.955399117587206,-21.90431406635211,770.2549215669447 -48.95544340975823,-21.904307303112894,761.951818724291 -48.9554874840611,-21.904300288878687,753.6518039410473 -48.95553134044306,-21.90429302458965,745.3548738356812 -48.95557619143024,-21.90428529787286,736.8300273696755 -48.95562081225845,-21.90427730781508,728.308429270872 -48.9556652029968,-21.904269054634725,719.7900744072911 -48.95571857595077,-21.904258723116634,709.4934463177062 -48.95577161269477,-21.90424800732265,699.201546068156 -48.95582431337683,-21.904236907469816,688.9143653977912 -48.955921311325696,-21.904215271472154,669.8188708249928 -48.956017151316864,-21.904192312226957,650.7395851278483 -48.956087376417045,-21.904174458625235,636.6215185666304 -48.9561569674887,-21.904155880514292,622.5122822414324 -48.95622591199033,-21.90413659795379,608.4118228695613 -48.956231794912796,-21.904134911662666,607.2028589333713 -48.95623767259993,-21.904133220923995,605.9939578455343 -48.95624354478046,-21.90413152615066,604.7851187663786 -48.95625527125909,-21.90412812657197,602.3676230672089 -48.956266972697584,-21.904124715436986,599.9503680791928 -48.95627864752434,-21.90412129513557,597.5333507688791 -48.95631631925796,-21.904110158379257,589.695173631403 -48.956353664885114,-21.904098995399348,581.8594345368142 -48.95639066106214,-21.904087841790698,574.0261116356634 -48.956427296595336,-21.904076714703255,566.1951990301943 -48.956463566309424,-21.904065622151805,558.3666924727529 -48.95649946751073,-21.90405456838491,550.5405862424523 -48.956534998534025,-21.904043556090244,542.7168744870077 -48.956604860593046,-21.904021688884967,527.096049098212 -48.95667323709354,-21.9040000020053,511.4847298423904 -48.95674012682122,-21.903978498562587,495.8828920352289 -48.95680553033243,-21.903957178976995,480.2905127843708 -48.956841856611454,-21.90394520478022,471.4779198530252</coordinates>
            </LineString>
        </Placemark>
    </Document>
</kml>
